[{"OBJECT_NAME":"STARLINK-4568","OBJECT_ID":"2022-104AL","EPOCH":"2026-03-09T17:01:47.002656","MEAN_MOTION":15.08857708,"ECCENTRICITY":0.00017847,"INCLINATION":53.2167,"RA_OF_ASC_NODE":233.6367,"ARG_OF_PERICENTER":62.4392,"MEAN_ANOMALY":297.6781,"EPHEMERIS_TYPE":0,"CLASSIFICATION_TYPE":"U","NORAD_CAT_ID":53622,"ELEMENT_SET_NO":999,"REV_AT_EPOCH":19575,"BSTAR":0.00018113246,"MEAN_MOTION_DOT":2.597e-5,"MEAN_MOTION_DDOT":0},{"OBJECT_NAME":"UPPER FREE FLYER","OBJECT_ID":"2018-099F","EPOCH":"2026-03-09T16:53:56.769792","MEAN_MOTION":15.10728091,"ECCENTRICITY":0.00115819,"INCLINATION":97.4495,"RA_OF_ASC_NODE":120.4613,"ARG_OF_PERICENTER":289.4209,"MEAN_ANOMALY":70.5769,"EPHEMERIS_TYPE":0,"CLASSIFICATION_TYPE":"U","NORAD_CAT_ID":43763,"ELEMENT_SET_NO":999,"REV_AT_EPOCH":39752,"BSTAR":0.00029221901,"MEAN_MOTION_DOT":4.788e-5,"MEAN_MOTION_DDOT":0}]
